IRIDIUM 171             
1 43929U 19002H   25006.26946396  .00000482  00000+0  16492-3 0  9995
2 43929  86.3977 213.9889 0002233  96.4891 263.6559 14.34224389313436
IRIDIUM 170             
1 43930U 19002J   25006.41537845  .00001404  00000+0  21859-3 0  9997
2 43930  86.6098 213.7117 0002292  80.5078 279.6398 14.72285431321752
IRIDIUM 167             
1 43931U 19002K   25006.61197812  .00000497  00000+0  17048-3 0  9992
2 43931  86.3969 213.6158 0001986 100.7584 259.3835 14.34216891313481
IRIDIUM 181             
1 56726U 23068S   25006.48188156  .00001091  00000+0  31647-3 0  9993
2 56726  86.6866 276.5821 0002620  89.3331 270.8171 14.43577166 86460
IRIDIUM 177             
1 56727U 23068T   25006.63837012  .00003279  00000+0  42758-3 0  9998
2 56727  86.1968 218.7477 0001951  86.4996 273.6448 14.80270697 88476
IRIDIUM 174             
1 56728U 23068U   25006.56543568  .00003217  00000+0  41990-3 0  9990
2 56728  86.1976 218.9025 0002498  86.1210 274.0297 14.80231453 88463
IRIDIUM 178             
1 56729U 23068V   25006.69521970  .00003083  00000+0  40220-3 0  9994
2 56729  86.5766 245.9314 0003040  86.4885 273.6684 14.80234942 88484
IRIDIUM 179             
1 56730U 23068W   25006.62221145  .00003320  00000+0  43367-3 0  9999
2 56730  86.6772 252.6584 0002298  87.1248 273.0236 14.80215871 88479
